start=new Date('2021-09-21T00:00:00.000Z').valueOf();
sats=[{"MEAN_ANOMALY":"251.2340","OBJECT_TYPE":"PAYLOAD","NORAD_CAT_ID":"46718","CENTER_NAME":"EARTH","MEAN_MOTION":"15.06386525","ELEMENT_SET_NO":"999","SITE":"AFETR","TLE_LINE1":"1 46718U 20073BA  21263.51555804 -.00000604  00000-0 -21661-4 0  9997","APOAPSIS":"547.893","MEAN_ELEMENT_THEORY":"SGP4","PERIOD":"95.593","ARG_OF_PERICENTER":"108.8749","REV_AT_EPOCH":"5154","TLE_LINE2":"2 46718  53.0565  19.2523 0000921 108.8749 251.2340 15.06386525 51546","RCS_SIZE":"LARGE","PERIAPSIS":"546.617","SEMIMAJOR_AXIS":"6925.390","COUNTRY_CODE":"US","ECCENTRICITY":"0.00009210","BSTAR":"-0.00002166100000","INCLINATION":"53.0565","OBJECT_ID":"2020-073BA","FILE":"3121293","MEAN_MOTION_DOT":"-0.00000604","MEAN_MOTION_DDOT":"0.0000000000000","LAUNCH_DATE":"2020-10-18","EPOCH":"2021-09-20T12:22:24.214656","EPHEMERIS_TYPE":"0","RA_OF_ASC_NODE":"19.2523","DECAY_DATE":null,"CLASSIFICATION_TYPE":"U","TIME_SYSTEM":"UTC","REF_FRAME":"TEME","GP_ID":"185100611","OBJECT_NAME":"STARLINK-1821"},{"SITE":"AFETR","ELEMENT_SET_NO":"999","ARG_OF_PERICENTER":"98.9664","PERIOD":"95.594","TLE_LINE1":"1 46719U 20073BB  21263.43216434  .00001280  00000-0  10499-3 0  9997","MEAN_ELEMENT_THEORY":"SGP4","APOAPSIS":"550.568","NORAD_CAT_ID":"46719","MEAN_ANOMALY":"261.1857","OBJECT_TYPE":"PAYLOAD","CENTER_NAME":"EARTH","MEAN_MOTION":"15.06368528","PERIAPSIS":"544.052","SEMIMAJOR_AXIS":"6925.445","COUNTRY_CODE":"US","REV_AT_EPOCH":"5154","RCS_SIZE":"LARGE","TLE_LINE2":"2 46719  53.0569 344.6103 0004704  98.9664 261.1857 15.06368528 51544","MEAN_MOTION_DOT":"0.00001280","MEAN_MOTION_DDOT":"0.0000000000000","EPOCH":"2021-09-20T10:22:18.998976","EPHEMERIS_TYPE":"0","LAUNCH_DATE":"2020-10-18","BSTAR":"0.00010499000000","ECCENTRICITY":"0.00047040","INCLINATION":"53.0569","OBJECT_ID":"2020-073BB","FILE":"3121163","GP_ID":"185096539","OBJECT_NAME":"STARLINK-1822","CLASSIFICATION_TYPE":"U","TIME_SYSTEM":"UTC","RA_OF_ASC_NODE":"344.6103","DECAY_DATE":null,"REF_FRAME":"TEME"},{"GP_ID":"185124477","OBJECT_NAME":"STARLINK-1823","TIME_SYSTEM":"UTC","CLASSIFICATION_TYPE":"U","DECAY_DATE":null,"RA_OF_ASC_NODE":"340.2585","REF_FRAME":"TEME","MEAN_MOTION_DDOT":"0.0000000000000","MEAN_MOTION_DOT":"0.00008357","EPHEMERIS_TYPE":"0","EPOCH":"2021-09-20T22:07:49.144512","LAUNCH_DATE":"2020-10-18","BSTAR":"0.00024169000000","ECCENTRICITY":"0.00033370","FILE":"3121356","INCLINATION":"53.0560","OBJECT_ID":"2020-073BC","PERIAPSIS":"454.206","SEMIMAJOR_AXIS":"6834.622","COUNTRY_CODE":"US","REV_AT_EPOCH":"5164","RCS_SIZE":"LARGE","TLE_LINE2":"2 46720  53.0560 340.2585 0003337 144.0389 216.0838 15.36494541 51648","SITE":"AFETR","ELEMENT_SET_NO":"999","PERIOD":"93.720","ARG_OF_PERICENTER":"144.0389","APOAPSIS":"458.768","MEAN_ELEMENT_THEORY":"SGP4","TLE_LINE1":"1 46720U 20073BC  21263.92209658  .00008357  00000-0  24169-3 0  9994","NORAD_CAT_ID":"46720","OBJECT_TYPE":"PAYLOAD","MEAN_ANOMALY":"216.0838","CENTER_NAME":"EARTH","MEAN_MOTION":"15.36494541"},{"REV_AT_EPOCH":"5371","RCS_SIZE":"LARGE","TLE_LINE2":"2 46721  52.9965 189.5149 0003788 181.4536 178.6485 16.06242369 53713","PERIAPSIS":"254.660","COUNTRY_CODE":"US","SEMIMAJOR_AXIS":"6635.309","NORAD_CAT_ID":"46721","MEAN_ANOMALY":"178.6485","OBJECT_TYPE":"PAYLOAD","MEAN_MOTION":"16.06242369","CENTER_NAME":"EARTH","SITE":"AFETR","ELEMENT_SET_NO":"999","ARG_OF_PERICENTER":"181.4536","PERIOD":"89.650","TLE_LINE1":"1 46721U 20073BD  21263.90369121  .00013354  11577-4  22186-4 0  9991","APOAPSIS":"259.687","MEAN_ELEMENT_THEORY":"SGP4","CLASSIFICATION_TYPE":"U","TIME_SYSTEM":"UTC","RA_OF_ASC_NODE":"189.5149","DECAY_DATE":null,"REF_FRAME":"TEME","GP_ID":"185123225","OBJECT_NAME":"STARLINK-1824","BSTAR":"0.00002218600000","ECCENTRICITY":"0.00037880","INCLINATION":"52.9965","OBJECT_ID":"2020-073BD","FILE":"3121356","MEAN_MOTION_DOT":"0.00013354","MEAN_MOTION_DDOT":"0.0000115770000","EPOCH":"2021-09-20T21:41:18.920544","EPHEMERIS_TYPE":"0","LAUNCH_DATE":"2020-10-18"},{"LAUNCH_DATE":"2020-10-18","EPOCH":"2021-09-20T19:21:43.116192","EPHEMERIS_TYPE":"0","MEAN_MOTION_DOT":"-0.00000810","MEAN_MOTION_DDOT":"0.0000000000000","INCLINATION":"53.0565","OBJECT_ID":"2020-073BE","FILE":"3121356","ECCENTRICITY":"0.00010610","BSTAR":"-0.00003548700000","OBJECT_NAME":"STARLINK-1825","GP_ID":"185122975","REF_FRAME":"TEME","RA_OF_ASC_NODE":"17.9287","DECAY_DATE":null,"CLASSIFICATION_TYPE":"U","TIME_SYSTEM":"UTC","TLE_LINE1":"1 46722U 20073BE  21263.80674903 -.00000810  00000-0 -35487-4 0  9996","MEAN_ELEMENT_THEORY":"SGP4","APOAPSIS":"547.995","ARG_OF_PERICENTER":"114.5796","PERIOD":"95.593","SITE":"AFETR","ELEMENT_SET_NO":"999","CENTER_NAME":"EARTH","MEAN_MOTION":"15.06384931","MEAN_ANOMALY":"245.5304","OBJECT_TYPE":"PAYLOAD","NORAD_CAT_ID":"46722","SEMIMAJOR_AXIS":"6925.395","COUNTRY_CODE":"US","PERIAPSIS":"546.525","TLE_LINE2":"2 46722  53.0565  17.9287 0001061 114.5796 245.5304 15.06384931 51102","RCS_SIZE":"LARGE","REV_AT_EPOCH":"5110"},{"TLE_LINE1":"1 46723U 20073BF  21263.69986540  .00000889  00000-0  78528-4 0  9994","MEAN_ELEMENT_THEORY":"SGP4","APOAPSIS":"547.891","ARG_OF_PERICENTER":"103.1292","PERIOD":"95.592","SITE":"AFETR","ELEMENT_SET_NO":"999","MEAN_MOTION":"15.06401774","CENTER_NAME":"EARTH","MEAN_ANOMALY":"256.9807","OBJECT_TYPE":"PAYLOAD","NORAD_CAT_ID":"46723","SEMIMAJOR_AXIS":"6925.343","COUNTRY_CODE":"US","PERIAPSIS":"546.525","RCS_SIZE":"LARGE","TLE_LINE2":"2 46723  53.0571 338.4147 0000986 103.1292 256.9807 15.06401774 51655","REV_AT_EPOCH":"5165","LAUNCH_DATE":"2020-10-18","EPOCH":"2021-09-20T16:47:48.370560","EPHEMERIS_TYPE":"0","MEAN_MOTION_DOT":"0.00000889","MEAN_MOTION_DDOT":"0.0000000000000","OBJECT_ID":"2020-073BF","INCLINATION":"53.0571","FILE":"3121356","ECCENTRICITY":"0.00009860","BSTAR":"0.00007852800000","OBJECT_NAME":"STARLINK-1826","GP_ID":"185124227","REF_FRAME":"TEME","RA_OF_ASC_NODE":"338.4147","DECAY_DATE":null,"CLASSIFICATION_TYPE":"U","TIME_SYSTEM":"UTC"},{"RA_OF_ASC_NODE":"326.3523","DECAY_DATE":null,"CLASSIFICATION_TYPE":"U","TIME_SYSTEM":"UTC","REF_FRAME":"TEME","GP_ID":"185123977","OBJECT_NAME":"STARLINK-1827","ECCENTRICITY":"0.00075770","BSTAR":"0.00426470000000","OBJECT_ID":"2020-073BG","INCLINATION":"53.0517","FILE":"3121356","MEAN_MOTION_DOT":"0.00377754","MEAN_MOTION_DDOT":"0.0000000000000","LAUNCH_DATE":"2020-10-18","EPOCH":"2021-09-20T17:05:19.864608","EPHEMERIS_TYPE":"0","REV_AT_EPOCH":"5182","TLE_LINE2":"2 46724  53.0517 326.3523 0007577 283.0089  77.0078 15.60701307 51821","RCS_SIZE":"LARGE","PERIAPSIS":"380.507","COUNTRY_CODE":"US","SEMIMAJOR_AXIS":"6763.767","MEAN_ANOMALY":"77.0078","OBJECT_TYPE":"PAYLOAD","NORAD_CAT_ID":"46724","MEAN_MOTION":"15.60701307","CENTER_NAME":"EARTH","SITE":"AFETR","ELEMENT_SET_NO":"999","TLE_LINE1":"1 46724U 20073BG  21263.71203547  .00377754  00000-0  42647-2 0  9996","APOAPSIS":"390.757","MEAN_ELEMENT_THEORY":"SGP4","ARG_OF_PERICENTER":"283.0089","PERIOD":"92.266"},{"ELEMENT_SET_NO":"999","SITE":"AFETR","ARG_OF_PERICENTER":"111.0462","PERIOD":"95.593","MEAN_ELEMENT_THEORY":"SGP4","APOAPSIS":"548.017","TLE_LINE1":"1 46725U 20073BH  21263.83623347 -.00000232  00000-0  32956-5 0  9994","NORAD_CAT_ID":"46725","OBJECT_TYPE":"PAYLOAD","MEAN_ANOMALY":"249.0646","CENTER_NAME":"EARTH","MEAN_MOTION":"15.06390322","PERIAPSIS":"546.469","SEMIMAJOR_AXIS":"6925.378","COUNTRY_CODE":"US","REV_AT_EPOCH":"5111","TLE_LINE2":"2 46725  53.0560  17.7970 0001118 111.0462 249.0646 15.06390322 51112","RCS_SIZE":"LARGE","MEAN_MOTION_DDOT":"0.0000000000000","MEAN_MOTION_DOT":"-0.00000232","EPHEMERIS_TYPE":"0","EPOCH":"2021-09-20T20:04:10.571808","LAUNCH_DATE":"2020-10-18","BSTAR":"0.00000329560000","ECCENTRICITY":"0.00011180","FILE":"3121356","OBJECT_ID":"2020-073BH","INCLINATION":"53.0560","GP_ID":"185122725","OBJECT_NAME":"STARLINK-1828","TIME_SYSTEM":"UTC","CLASSIFICATION_TYPE":"U","DECAY_DATE":null,"RA_OF_ASC_NODE":"17.7970","REF_FRAME":"TEME"},{"ELEMENT_SET_NO":"999","SITE":"AFETR","TLE_LINE1":"1 46726U 20073BJ  21263.79522774 -.00000372  00000-0 -58974-5 0  9996","MEAN_ELEMENT_THEORY":"SGP4","APOAPSIS":"552.924","PERIOD":"95.593","ARG_OF_PERICENTER":"177.9352","MEAN_ANOMALY":"182.1672","OBJECT_TYPE":"PAYLOAD","NORAD_CAT_ID":"46726","CENTER_NAME":"EARTH","MEAN_MOTION":"15.06385034","PERIAPSIS":"541.594","SEMIMAJOR_AXIS":"6925.394","COUNTRY_CODE":"US","REV_AT_EPOCH":"5131","TLE_LINE2":"2 46726  53.0574   2.9831 0008180 177.9352 182.1672 15.06385034 51317","RCS_SIZE":"LARGE","MEAN_MOTION_DOT":"-0.00000372","MEAN_MOTION_DDOT":"0.0000000000000","LAUNCH_DATE":"2020-10-18","EPOCH":"2021-09-20T19:05:07.676736","EPHEMERIS_TYPE":"0","ECCENTRICITY":"0.00081800","BSTAR":"-0.00000589740000","OBJECT_ID":"2020-073BJ","INCLINATION":"53.0574","FILE":"3121356","GP_ID":"185123476","OBJECT_NAME":"STARLINK-1829","RA_OF_ASC_NODE":"2.9831","DECAY_DATE":null,"CLASSIFICATION_TYPE":"U","TIME_SYSTEM":"UTC","REF_FRAME":"TEME"},{"SITE":"AFETR","ELEMENT_SET_NO":"999","MEAN_ELEMENT_THEORY":"SGP4","APOAPSIS":"548.205","TLE_LINE1":"1 46727U 20073BK  21263.61876086 -.00000044  00000-0  15947-4 0  9993","PERIOD":"95.593","ARG_OF_PERICENTER":"63.4214","OBJECT_TYPE":"PAYLOAD","MEAN_ANOMALY":"296.6918","NORAD_CAT_ID":"46727","MEAN_MOTION":"15.06391793","CENTER_NAME":"EARTH","PERIAPSIS":"546.273","COUNTRY_CODE":"US","SEMIMAJOR_AXIS":"6925.374","REV_AT_EPOCH":"5164","TLE_LINE2":"2 46727  53.0525 338.7849 0001395  63.4214 296.6918 15.06391793 51649","RCS_SIZE":"LARGE","MEAN_MOTION_DDOT":"0.0000000000000","MEAN_MOTION_DOT":"-0.00000044","LAUNCH_DATE":"2020-10-18","EPHEMERIS_TYPE":"0","EPOCH":"2021-09-20T14:51:00.938304","ECCENTRICITY":"0.00013950","BSTAR":"0.00001594700000","FILE":"3121356","OBJECT_ID":"2020-073BK","INCLINATION":"53.0525","GP_ID":"185123727","OBJECT_NAME":"STARLINK-1830","DECAY_DATE":null,"RA_OF_ASC_NODE":"338.7849","TIME_SYSTEM":"UTC","CLASSIFICATION_TYPE":"U","REF_FRAME":"TEME"}];
